NORAD_CAT_ID,OBJECT_NAME,OBJECT_TYPE,EPOCH,MEAN_MOTION,ECCENTRICITY,INCLINATION,RA_OF_ASC_NODE,ARG_OF_PERICENTER,MEAN_ANOMALY,BSTAR,MEAN_MOTION_DOT,MEAN_MOTION_DDOT,TLE_LINE0,TLE_LINE1,TLE_LINE2,SEMIMAJOR_AXIS,PERIOD,APOGEE,PERIGEE,DECAYED
52266.0,STARLINK-3739,PAYLOAD,2024-02-08 09:32:10,15.08844206,0.0001371,53.2168,282.2097,77.7097,282.4048,7.418e-05,8.93e-06,0.0,0 STARLINK-3739,1 52266U 22041F   24039.39734580  .00000893  00000-0  74180-4 0  9991,2 52266  53.2168 282.2097 0001371  77.7097 282.4048 15.08844206100813,6917.868,95.437,540.681,538.784,0.0
52266.0,STARLINK-3739,PAYLOAD,2024-02-08 22:15:15,15.08853549,0.000134,53.2164,279.8303,85.1181,274.9964,0.00011856,1.6e-05,0.0,0 STARLINK-3739,1 52266U 22041F   24039.92725843  .00001600  00000-0  11856-3 0  9999,2 52266  53.2164 279.8303 0001340  85.1181 274.9964 15.08853549 99667,6917.839,95.437,540.631,538.777,0.0
52266.0,STARLINK-3739,PAYLOAD,2024-02-09 01:26:00,15.08859181,0.000136,53.2165,279.2347,87.0006,273.1142,0.00017533,2.505e-05,0.0,0 STARLINK-3739,1 52266U 22041F   24040.05973296  .00002505  00000-0  17533-3 0  9995,2 52266  53.2165 279.2347 0001360  87.0006 273.1142 15.08859181100917,6917.822,95.436,540.628,538.746,0.0
52266.0,STARLINK-3739,PAYLOAD,2024-02-09 18:55:16,15.08841751,0.0001997,53.2164,275.9609,122.1219,237.9967,0.00017298,2.466e-05,0.0,0 STARLINK-3739,1 52266U 22041F   24040.78838509  .00002466  00000-0  17298-3 0  9996,2 52266  53.2164 275.9609 0001997 122.1219 237.9967 15.08841751101023,6917.875,95.437,541.122,538.359,0.0
52266.0,STARLINK-3739,PAYLOAD,2024-02-10 01:16:49,15.08845818,0.0001389,53.2159,274.7734,91.9484,268.1668,0.00013594,1.877e-05,0.0,0 STARLINK-3739,1 52266U 22041F   24041.05334505  .00001877  00000-0  13594-3 0  9994,2 52266  53.2159 274.7734 0001389  91.9484 268.1668 15.08845818 99832,6917.863,95.437,540.688,538.767,0.0
52266.0,STARLINK-3739,PAYLOAD,2024-02-10 20:21:26,15.08841239,0.0001549,53.2152,271.2031,104.0323,256.0842,-2.2486e-06,-3.24e-06,0.0,0 STARLINK-3739,1 52266U 22041F   24041.84822774 -.00000324  00000-0 -22486-5 0  9991,2 52266  53.2152 271.2031 0001549 104.0323 256.0842 15.08841239101188,6917.877,95.437,540.813,538.67,0.0
52266.0,STARLINK-3739,PAYLOAD,2024-02-10 21:56:49,15.08842971,0.0001529,53.2154,270.9057,108.3565,251.7594,-3.3533e-05,-8.22e-06,0.0,0 STARLINK-3739,1 52266U 22041F   24041.91446655 -.00000822  00000-0 -33533-4 0  9996,2 52266  53.2154 270.9057 0001529 108.3565 251.7594 15.08842971 99969,6917.871,95.437,540.794,538.679,0.0
52266.0,STARLINK-3739,PAYLOAD,2024-02-11 20:12:13,15.08846372,0.0001537,53.2159,266.7451,102.5396,257.5768,0.00019949,2.889e-05,0.0,0 STARLINK-3739,1 52266U 22041F   24042.84182522  .00002889  00000-0  19949-3 0  9996,2 52266  53.2159 266.7451 0001537 102.5396 257.5768 15.08846372100107,6917.861,95.437,540.789,538.663,0.0
52266.0,STARLINK-3739,PAYLOAD,2024-02-12 20:03:01,15.08837515,0.0001514,53.2159,262.2847,104.9499,255.166,4.7584e-05,4.69e-06,0.0,0 STARLINK-3739,1 52266U 22041F   24043.83543025  .00000469  00000-0  47584-4 0  9994,2 52266  53.2159 262.2847 0001514 104.9499 255.1660 15.08837515101488,6917.888,95.438,540.8,538.706,0.0
52266.0,STARLINK-3739,PAYLOAD,2024-02-12 21:38:24,15.08836063,0.0001371,53.2154,261.9893,97.001,263.1139,-1.3184e-05,-4.98e-06,0.0,0 STARLINK-3739,1 52266U 22041F   24043.90167084 -.00000498  00000-0 -13184-4 0  9992,2 52266  53.2154 261.9893 0001371  97.0010 263.1139 15.08836063100264,6917.892,95.438,540.706,538.809,0.0
52266.0,STARLINK-3739,PAYLOAD,2024-02-13 07:10:43,15.08835718,0.0001278,53.2151,260.2023,93.0466,267.0673,2.7917e-06,-2.43e-06,0.0,0 STARLINK-3739,1 52266U 22041F   24044.29911170 -.00000243  00000-0  27917-5 0  9995,2 52266  53.2151 260.2023 0001278  93.0466 267.0673 15.08835718100324,6917.893,95.438,540.643,538.874,0.0
52266.0,STARLINK-3739,PAYLOAD,2024-02-13 21:29:11,15.0884123,0.0001406,53.216,257.5253,99.3844,260.7307,3.4792e-05,2.66e-06,0.0,0 STARLINK-3739,1 52266U 22041F   24044.89527342  .00000266  00000-0  34792-4 0  9997,2 52266  53.2160 257.5253 0001406  99.3844 260.7307 15.08841230100410,6917.877,95.437,540.714,538.769,0.0
52266.0,STARLINK-3739,PAYLOAD,2024-02-14 00:39:57,15.08840523,0.0001164,53.2161,256.9307,89.323,270.7895,6.6114e-06,-1.83e-06,0.0,0 STARLINK-3739,1 52266U 22041F   24045.02775440 -.00000183  00000-0  66114-5 0  9990,2 52266  53.2161 256.9307 0001164  89.3230 270.7895 15.08840523101668,6917.879,95.438,540.549,538.939,0.0
52266.0,STARLINK-3739,PAYLOAD,2024-02-14 07:01:30,15.08835276,0.0001162,53.216,255.7414,94.1171,265.9954,7.4733e-05,9.02e-06,0.0,0 STARLINK-3739,1 52266U 22041F   24045.29271621  .00000902  00000-0  74733-4 0  9994,2 52266  53.2160 255.7414 0001162  94.1171 265.9954 15.08835276100478,6917.895,95.438,540.564,538.956,0.0
52266.0,STARLINK-3739,PAYLOAD,2024-02-14 21:19:58,15.08843479,0.0001151,53.2158,253.0647,87.4286,272.6838,0.00014911,2.086e-05,0.0,0 STARLINK-3739,1 52266U 22041F   24045.88887049  .00002086  00000-0  14911-3 0  9992,2 52266  53.2158 253.0647 0001151  87.4286 272.6838 15.08843479100564,6917.87,95.437,540.531,538.939,0.0
52266.0,STARLINK-3739,PAYLOAD,2024-02-15 06:52:16,15.0885151,0.0001235,53.2174,251.2798,119.6443,240.4672,-5.6483e-05,-1.187e-05,0.0,0 STARLINK-3739,1 52266U 22041F   24046.28630732 -.00001187  00000-0 -56483-4 0  9996,2 52266  53.2174 251.2798 0001235 119.6443 240.4672 15.08851510101852,6917.845,95.437,540.565,538.856,0.0
52266.0,STARLINK-3739,PAYLOAD,2024-02-15 19:35:22,15.08837785,0.0001125,53.2159,248.9011,89.8136,270.2985,5.6659e-05,6.14e-06,0.0,0 STARLINK-3739,1 52266U 22041F   24046.81623799  .00000614  00000-0  56659-4 0  9997,2 52266  53.2159 248.9011 0001125  89.8136 270.2985 15.08837785101936,6917.887,95.438,540.53,538.974,0.0
52266.0,STARLINK-3739,PAYLOAD,2024-02-15 21:10:47,15.08792716,0.0001338,53.2165,248.6038,100.2653,259.849,0.00073048,0.00011342,0.0,0 STARLINK-3739,1 52266U 22041F   24046.88248966  .00011342  00000-0  73048-3 0  9993,2 52266  53.2165 248.6038 0001338 100.2653 259.8490 15.08792716100710,6918.025,95.441,540.816,538.964,0.0
52266.0,STARLINK-3739,PAYLOAD,2024-02-16 06:43:04,15.08842383,0.0001172,53.2164,246.82,88.5258,271.5868,0.00014244,1.98e-05,0.0,0 STARLINK-3739,1 52266U 22041F   24047.27991365  .00001980  00000-0  14244-3 0  9995,2 52266  53.2164 246.8200 0001172  88.5258 271.5868 15.08842383102005,6917.873,95.437,540.549,538.927,0.0
52266.0,STARLINK-3739,PAYLOAD,2024-02-16 13:04:37,15.08833169,0.0001244,53.2162,245.6311,89.9499,270.1636,0.00026851,3.987e-05,0.0,0 STARLINK-3739,1 52266U 22041F   24047.54487791  .00003987  00000-0  26851-3 0  9994,2 52266  53.2162 245.6311 0001244  89.9499 270.1636 15.08833169100812,6917.901,95.438,540.627,538.906,0.0
52266.0,STARLINK-3739,PAYLOAD,2024-02-16 19:26:09,15.0884769,0.000133,53.2161,244.442,85.3152,274.7992,0.00013421,1.849e-05,0.0,0 STARLINK-3739,1 52266U 22041F   24047.80982858  .00001849  00000-0  13421-3 0  9991,2 52266  53.2161 244.4420 0001330  85.3152 274.7992 15.08847690100854,6917.857,95.437,540.642,538.802,0.0
52266.0,STARLINK-3739,PAYLOAD,2024-02-16 22:36:55,15.0885521,0.0001299,53.2157,243.8468,86.3652,273.7488,9.4068e-05,1.21e-05,0.0,0 STARLINK-3739,1 52266U 22041F   24047.94230472  .00001210  00000-0  94068-4 0  9993,2 52266  53.2157 243.8468 0001299  86.3652 273.7488 15.08855210102100,6917.834,95.437,540.598,538.8,0.0
52266.0,STARLINK-3739,PAYLOAD,2024-02-17 06:33:51,15.08847771,0.000144,53.2145,242.3596,75.6367,284.4785,2.5889e-05,1.24e-06,0.0,0 STARLINK-3739,1 52266U 22041F   24048.27351043  .00000124  00000-0  25889-4 0  9996,2 52266  53.2145 242.3596 0001440  75.6367 284.4785 15.08847771102152,6917.857,95.437,540.718,538.725,0.0
52266.0,STARLINK-3739,PAYLOAD,2024-02-17 19:16:56,15.08839428,0.0001432,53.2171,239.9749,93.2996,266.816,4.7722e-05,4.72e-06,0.0,0 STARLINK-3739,1 52266U 22041F   24048.80343541  .00000472  00000-0  47722-4 0  9995,2 52266  53.2171 239.9749 0001432  93.2996 266.8160 15.08839428102238,6917.882,95.438,540.738,538.756,0.0
52266.0,STARLINK-3739,PAYLOAD,2024-02-17 22:27:43,15.08837752,0.000134,53.2156,239.3842,89.8957,270.2189,2.6595e-05,1.35e-06,0.0,0 STARLINK-3739,1 52266U 22041F   24048.93591695  .00000135  00000-0  26595-4 0  9995,2 52266  53.2156 239.3842 0001340  89.8957 270.2189 15.08837752101029,6917.887,95.438,540.679,538.825,0.0
52266.0,STARLINK-3739,PAYLOAD,2024-02-18 12:46:11,15.08839721,0.000131,53.2168,236.7052,106.6517,253.4619,5.2886e-05,5.54e-06,0.0,0 STARLINK-3739,1 52266U 22041F   24049.53207424  .00000554  00000-0  52886-4 0  9993,2 52266  53.2168 236.7052 0001310 106.6517 253.4619 15.08839721101112,6917.881,95.438,540.652,538.84,0.0
52266.0,STARLINK-3739,PAYLOAD,2024-02-18 19:07:43,15.08845801,0.0001449,53.2165,235.5201,84.728,275.3878,3.2215e-05,2.25e-06,0.0,0 STARLINK-3739,1 52266U 22041F   24049.79703137  .00000225  00000-0  32215-4 0  9992,2 52266  53.2165 235.5201 0001449  84.7280 275.3878 15.08845801101158,6917.863,95.437,540.73,538.725,0.0
52266.0,STARLINK-3739,PAYLOAD,2024-02-19 18:58:31,15.08833335,0.0001305,53.2158,231.0594,76.9735,283.1403,6.3275e-05,7.19e-06,0.0,0 STARLINK-3739,1 52266U 22041F   24050.79064055  .00000719  00000-0  63275-4 0  9991,2 52266  53.2158 231.0594 0001305  76.9735 283.1403 15.08833335102538,6917.901,95.438,540.669,538.863,0.0
52266.0,STARLINK-3739,PAYLOAD,2024-02-20 10:52:22,15.08837435,0.0001309,53.2161,228.0858,78.7757,281.3382,6.9882e-05,8.24e-06,0.0,0 STARLINK-3739,1 52266U 22041F   24051.45303889  .00000824  00000-0  69882-4 0  9993,2 52266  53.2161 228.0858 0001309  78.7757 281.3382 15.08837435101405,6917.888,95.438,540.659,538.848,0.0
52266.0,STARLINK-3739,PAYLOAD,2024-02-20 18:49:17,15.0884484,0.0001302,53.2164,226.5994,79.645,280.4689,8.2229e-05,1.021e-05,0.0,0 STARLINK-3739,1 52266U 22041F   24051.78423348  .00001021  00000-0  82229-4 0  9992,2 52266  53.2164 226.5994 0001302  79.6450 280.4689 15.08844840102684,6917.866,95.437,540.631,538.83,0.0
